[{"CCSDS_OMM_VERS":"2.0","COMMENT":"GENERATED VIA SPACE-TRACK.ORG API","CREATION_DATE":"2021-03-13T18:50:59","ORIGINATOR":"18 SPCS","OBJECT_NAME":"ONEWEB-0027","OBJECT_ID":"2020-020J","CENTER_NAME":"EARTH","REF_FRAME":"TEME","TIME_SYSTEM":"UTC","MEAN_ELEMENT_THEORY":"SGP4","EPOCH":"2021-03-13T11:35:07.332000","MEAN_MOTION":"13.91375871","ECCENTRICITY":"0.00283900","INCLINATION":"87.8884","RA_OF_ASC_NODE":"28.4153","ARG_OF_PERICENTER":"99.3357","MEAN_ANOMALY":"261.1028","EPHEMERIS_TYPE":"0","CLASSIFICATION_TYPE":"U","NORAD_CAT_ID":"45432","ELEMENT_SET_NO":"999","REV_AT_EPOCH":"5311","BSTAR":"-0.33424000000000","MEAN_MOTION_DOT":"-0.00404620","MEAN_MOTION_DDOT":"0.0000000000000","SEMIMAJOR_AXIS":"7301.950","PERIOD":"103.495","APOAPSIS":"944.545","PERIAPSIS":"903.085","OBJECT_TYPE":"PAYLOAD","RCS_SIZE":"MEDIUM","COUNTRY_CODE":"UK","LAUNCH_DATE":"2020-03-21","SITE":"TTMTR","DECAY_DATE":null,"FILE":"2981440","GP_ID":"173343276","TLE_LINE0":"0 ONEWEB-0027","TLE_LINE1":"1 45432U 20020J   21072.48272375 -.00404620  00000-0 -33424+0 0  9995","TLE_LINE2":"2 45432  87.8884  28.4153 0028390  99.3357 261.1028 13.91375871 53119"},{"CCSDS_OMM_VERS":"2.0","COMMENT":"GENERATED VIA SPACE-TRACK.ORG API","CREATION_DATE":"2021-03-13T14:46:12","ORIGINATOR":"18 SPCS","OBJECT_NAME":"ONEWEB-0027","OBJECT_ID":"2020-020J","CENTER_NAME":"EARTH","REF_FRAME":"TEME","TIME_SYSTEM":"UTC","MEAN_ELEMENT_THEORY":"SGP4","EPOCH":"2021-03-13T11:35:07.332000","MEAN_MOTION":"13.91375871","ECCENTRICITY":"0.00283900","INCLINATION":"87.8884","RA_OF_ASC_NODE":"28.4153","ARG_OF_PERICENTER":"99.3357","MEAN_ANOMALY":"261.1028","EPHEMERIS_TYPE":"0","CLASSIFICATION_TYPE":"U","NORAD_CAT_ID":"45432","ELEMENT_SET_NO":"999","REV_AT_EPOCH":"5311","BSTAR":"-0.33424000000000","MEAN_MOTION_DOT":"-0.00404620","MEAN_MOTION_DDOT":"0.0000000000000","SEMIMAJOR_AXIS":"7301.950","PERIOD":"103.495","APOAPSIS":"944.545","PERIAPSIS":"903.085","OBJECT_TYPE":"PAYLOAD","RCS_SIZE":"MEDIUM","COUNTRY_CODE":"UK","LAUNCH_DATE":"2020-03-21","SITE":"TTMTR","DECAY_DATE":null,"FILE":"2981287","GP_ID":"173321557","TLE_LINE0":"0 ONEWEB-0027","TLE_LINE1":"1 45432U 20020J   21072.48272375 -.00404620  00000-0 -33424+0 0  9995","TLE_LINE2":"2 45432  87.8884  28.4153 0028390  99.3357 261.1028 13.91375871 53119"},{"CCSDS_OMM_VERS":"2.0","COMMENT":"GENERATED VIA SPACE-TRACK.ORG API","CREATION_DATE":"2021-03-14T22:26:12","ORIGINATOR":"18 SPCS","OBJECT_NAME":"ONEWEB-0027","OBJECT_ID":"2020-020J","CENTER_NAME":"EARTH","REF_FRAME":"TEME","TIME_SYSTEM":"UTC","MEAN_ELEMENT_THEORY":"SGP4","EPOCH":"2021-03-14T18:43:35.379840","MEAN_MOTION":"13.88679234","ECCENTRICITY":"0.00291820","INCLINATION":"87.8956","RA_OF_ASC_NODE":"28.1207","ARG_OF_PERICENTER":"96.1557","MEAN_ANOMALY":"264.2941","EPHEMERIS_TYPE":"0","CLASSIFICATION_TYPE":"U","NORAD_CAT_ID":"45432","ELEMENT_SET_NO":"999","REV_AT_EPOCH":"5329","BSTAR":"-0.23304000000000","MEAN_MOTION_DOT":"-0.00271788","MEAN_MOTION_DDOT":"0.0000000000000","SEMIMAJOR_AXIS":"7311.400","PERIOD":"103.696","APOAPSIS":"954.601","PERIAPSIS":"911.929","OBJECT_TYPE":"PAYLOAD","RCS_SIZE":"MEDIUM","COUNTRY_CODE":"UK","LAUNCH_DATE":"2020-03-21","SITE":"TTMTR","DECAY_DATE":null,"FILE":"2982133","GP_ID":"173406903","TLE_LINE0":"0 ONEWEB-0027","TLE_LINE1":"1 45432U 20020J   21073.78027060 -.00271788  00000-0 -23304+0 0  9991","TLE_LINE2":"2 45432  87.8956  28.1207 0029182  96.1557 264.2941 13.88679234 53296"},{"CCSDS_OMM_VERS":"2.0","COMMENT":"GENERATED VIA SPACE-TRACK.ORG API","CREATION_DATE":"2021-03-15T18:04:39","ORIGINATOR":"18 SPCS","OBJECT_NAME":"ONEWEB-0027","OBJECT_ID":"2020-020J","CENTER_NAME":"EARTH","REF_FRAME":"TEME","TIME_SYSTEM":"UTC","MEAN_ELEMENT_THEORY":"SGP4","EPOCH":"2021-03-14T23:58:31.771776","MEAN_MOTION":"13.86239934","ECCENTRICITY":"0.00294940","INCLINATION":"87.8968","RA_OF_ASC_NODE":"28.0702","ARG_OF_PERICENTER":"91.9965","MEAN_ANOMALY":"268.4583","EPHEMERIS_TYPE":"0","CLASSIFICATION_TYPE":"U","NORAD_CAT_ID":"45432","ELEMENT_SET_NO":"999","REV_AT_EPOCH":"5332","BSTAR":"-0.42847000000000","MEAN_MOTION_DOT":"-0.00474881","MEAN_MOTION_DDOT":"0.0000000000000","SEMIMAJOR_AXIS":"7319.975","PERIOD":"103.878","APOAPSIS":"963.429","PERIAPSIS":"920.250","OBJECT_TYPE":"PAYLOAD","RCS_SIZE":"MEDIUM","COUNTRY_CODE":"UK","LAUNCH_DATE":"2020-03-21","SITE":"TTMTR","DECAY_DATE":null,"FILE":"2982772","GP_ID":"173438967","TLE_LINE0":"0 ONEWEB-0027","TLE_LINE1":"1 45432U 20020J   21073.99897884 -.00474881  00000-0 -42847+0 0  9995","TLE_LINE2":"2 45432  87.8968  28.0702 0029494  91.9965 268.4583 13.86239934 53329"},{"CCSDS_OMM_VERS":"2.0","COMMENT":"GENERATED VIA SPACE-TRACK.ORG API","CREATION_DATE":"2021-03-15T06:26:12","ORIGINATOR":"18 SPCS","OBJECT_NAME":"ONEWEB-0027","OBJECT_ID":"2020-020J","CENTER_NAME":"EARTH","REF_FRAME":"TEME","TIME_SYSTEM":"UTC","MEAN_ELEMENT_THEORY":"SGP4","EPOCH":"2021-03-14T23:58:31.771776","MEAN_MOTION":"13.86239934","ECCENTRICITY":"0.00294940","INCLINATION":"87.8968","RA_OF_ASC_NODE":"28.0702","ARG_OF_PERICENTER":"91.9965","MEAN_ANOMALY":"268.4583","EPHEMERIS_TYPE":"0","CLASSIFICATION_TYPE":"U","NORAD_CAT_ID":"45432","ELEMENT_SET_NO":"999","REV_AT_EPOCH":"5332","BSTAR":"-0.42847000000000","MEAN_MOTION_DOT":"-0.00474881","MEAN_MOTION_DDOT":"0.0000000000000","SEMIMAJOR_AXIS":"7319.975","PERIOD":"103.878","APOAPSIS":"963.429","PERIAPSIS":"920.250","OBJECT_TYPE":"PAYLOAD","RCS_SIZE":"MEDIUM","COUNTRY_CODE":"UK","LAUNCH_DATE":"2020-03-21","SITE":"TTMTR","DECAY_DATE":null,"FILE":"2982335","GP_ID":"173412040","TLE_LINE0":"0 ONEWEB-0027","TLE_LINE1":"1 45432U 20020J   21073.99897884 -.00474881  00000-0 -42847+0 0  9995","TLE_LINE2":"2 45432  87.8968  28.0702 0029494  91.9965 268.4583 13.86239934 53329"},{"CCSDS_OMM_VERS":"2.0","COMMENT":"GENERATED VIA SPACE-TRACK.ORG API","CREATION_DATE":"2021-03-16T17:44:40","ORIGINATOR":"18 SPCS","OBJECT_NAME":"ONEWEB-0027","OBJECT_ID":"2020-020J","CENTER_NAME":"EARTH","REF_FRAME":"TEME","TIME_SYSTEM":"UTC","MEAN_ELEMENT_THEORY":"SGP4","EPOCH":"2021-03-15T19:04:00.213024","MEAN_MOTION":"13.84326946","ECCENTRICITY":"0.00283580","INCLINATION":"87.9034","RA_OF_ASC_NODE":"27.8956","ARG_OF_PERICENTER":"93.3607","MEAN_ANOMALY":"267.0807","EPHEMERIS_TYPE":"0","CLASSIFICATION_TYPE":"U","NORAD_CAT_ID":"45432","ELEMENT_SET_NO":"999","REV_AT_EPOCH":"5343","BSTAR":"-0.39713000000000","MEAN_MOTION_DOT":"-0.00424909","MEAN_MOTION_DDOT":"0.0000000000000","SEMIMAJOR_AXIS":"7326.717","PERIOD":"104.022","APOAPSIS":"969.359","PERIAPSIS":"927.804","OBJECT_TYPE":"PAYLOAD","RCS_SIZE":"MEDIUM","COUNTRY_CODE":"UK","LAUNCH_DATE":"2020-03-21","SITE":"TTMTR","DECAY_DATE":null,"FILE":"2983368","GP_ID":"173497217","TLE_LINE0":"0 ONEWEB-0027","TLE_LINE1":"1 45432U 20020J   21074.79444691 -.00424909  00000-0 -39713+0 0  9992","TLE_LINE2":"2 45432  87.9034  27.8956 0028358  93.3607 267.0807 13.84326946 53433"},{"CCSDS_OMM_VERS":"2.0","COMMENT":"GENERATED VIA SPACE-TRACK.ORG API","CREATION_DATE":"2021-03-16T06:36:13","ORIGINATOR":"18 SPCS","OBJECT_NAME":"ONEWEB-0027","OBJECT_ID":"2020-020J","CENTER_NAME":"EARTH","REF_FRAME":"TEME","TIME_SYSTEM":"UTC","MEAN_ELEMENT_THEORY":"SGP4","EPOCH":"2021-03-15T19:04:00.213024","MEAN_MOTION":"13.84326946","ECCENTRICITY":"0.00283580","INCLINATION":"87.9034","RA_OF_ASC_NODE":"27.8956","ARG_OF_PERICENTER":"93.3607","MEAN_ANOMALY":"267.0807","EPHEMERIS_TYPE":"0","CLASSIFICATION_TYPE":"U","NORAD_CAT_ID":"45432","ELEMENT_SET_NO":"999","REV_AT_EPOCH":"5343","BSTAR":"-0.39713000000000","MEAN_MOTION_DOT":"-0.00424909","MEAN_MOTION_DDOT":"0.0000000000000","SEMIMAJOR_AXIS":"7326.717","PERIOD":"104.022","APOAPSIS":"969.359","PERIAPSIS":"927.804","OBJECT_TYPE":"PAYLOAD","RCS_SIZE":"MEDIUM","COUNTRY_CODE":"UK","LAUNCH_DATE":"2020-03-21","SITE":"TTMTR","DECAY_DATE":null,"FILE":"2983041","GP_ID":"173471191","TLE_LINE0":"0 ONEWEB-0027","TLE_LINE1":"1 45432U 20020J   21074.79444691 -.00424909  00000-0 -39713+0 0  9992","TLE_LINE2":"2 45432  87.9034  27.8956 0028358  93.3607 267.0807 13.84326946 53433"},{"CCSDS_OMM_VERS":"2.0","COMMENT":"GENERATED VIA SPACE-TRACK.ORG API","CREATION_DATE":"2021-03-17T20:36:38","ORIGINATOR":"18 SPCS","OBJECT_NAME":"ONEWEB-0027","OBJECT_ID":"2020-020J","CENTER_NAME":"EARTH","REF_FRAME":"TEME","TIME_SYSTEM":"UTC","MEAN_ELEMENT_THEORY":"SGP4","EPOCH":"2021-03-17T12:50:42.202752","MEAN_MOTION":"13.78983947","ECCENTRICITY":"0.00288200","INCLINATION":"87.9157","RA_OF_ASC_NODE":"27.5097","ARG_OF_PERICENTER":"88.2910","MEAN_ANOMALY":"272.1557","EPHEMERIS_TYPE":"0","CLASSIFICATION_TYPE":"U","NORAD_CAT_ID":"45432","ELEMENT_SET_NO":"999","REV_AT_EPOCH":"5367","BSTAR":"-0.29864000000000","MEAN_MOTION_DOT":"-0.00294370","MEAN_MOTION_DDOT":"0.0000000000000","SEMIMAJOR_AXIS":"7345.630","PERIOD":"104.425","APOAPSIS":"988.665","PERIAPSIS":"946.325","OBJECT_TYPE":"PAYLOAD","RCS_SIZE":"MEDIUM","COUNTRY_CODE":"UK","LAUNCH_DATE":"2020-03-21","SITE":"TTMTR","DECAY_DATE":null,"FILE":"2984683","GP_ID":"173572004","TLE_LINE0":"0 ONEWEB-0027","TLE_LINE1":"1 45432U 20020J   21076.53521068 -.00294370  00000-0 -29864+0 0  9993","TLE_LINE2":"2 45432  87.9157  27.5097 0028820  88.2910 272.1557 13.78983947 53674"}]